NORAD_CAT_ID,OBJECT_NAME,OBJECT_TYPE,EPOCH,MEAN_MOTION,ECCENTRICITY,INCLINATION,RA_OF_ASC_NODE,ARG_OF_PERICENTER,MEAN_ANOMALY,BSTAR,MEAN_MOTION_DOT,MEAN_MOTION_DDOT,TLE_LINE0,TLE_LINE1,TLE_LINE2,SEMIMAJOR_AXIS,PERIOD,APOGEE,PERIGEE,DECAYED
49144.0,STARLINK-3100,PAYLOAD,2022-01-20 22:00:00,14.98348978,0.0003417,70.0015,138.6063,276.8184,26.0063,-0.0038181,-0.0004538,0.0,0 STARLINK-3100,1 49144U 21082Q   22020.91667824 -.00045380  00000-0 -38181-2 0  9999,2 49144  70.0015 138.6063 0003417 276.8184  26.0063 14.98348978 19980,6950.134,96.106,574.374,569.624,0.0
49144.0,STARLINK-3100,PAYLOAD,2022-01-21 14:00:01,14.98330416,0.0003478999999999,70.0017,136.9255,275.8179,21.9768,-4.6808e-05,-6.52e-06,0.0,0 STARLINK-3100,1 49144U 21082Q   22021.58334491 -.00000652  00000-0 -46808-4 0  9994,2 49144  70.0017 136.9255 0003479 275.8179  21.9768 14.98330416 20084,6950.191999999999,96.107,574.475,569.639,0.0
49144.0,STARLINK-3100,PAYLOAD,2022-01-21 22:00:00,14.98357615,0.0003476,70.0015,136.0851,276.7748,18.495,-0.0040431999999999,-0.00048043,0.0,0 STARLINK-3100,1 49144U 21082Q   22021.91667824 -.00048043  00000-0 -40432-2 0  9991,2 49144  70.0015 136.0851 0003476 276.7748  18.4950 14.98357615  3562,6950.107,96.105,574.388,569.557,0.0
49144.0,STARLINK-3100,PAYLOAD,2022-01-22 02:00:01,14.98316466,0.0003467,70.0016,135.6648,273.5045,200.5238,0.0023177,0.00027662,0.0,0 STARLINK-3100,1 49144U 21082Q   22022.08334491  .00027662  00000-0  23177-2 0  9990,2 49144  70.0016 135.6648 0003467 273.5045 200.5238 14.98316466  3569,6950.235,96.108,574.509,569.69,0.0
49144.0,STARLINK-3100,PAYLOAD,2022-01-22 22:00:00,14.98341871,0.0003363,70.0012,133.5639,277.4913,10.2394,-0.0041915,-0.00049769,0.0,0 STARLINK-3100,1 49144U 21082Q   22022.91667824 -.00049769  00000-0 -41915-2 0  9995,2 49144  70.0012 133.5639 0003363 277.4913  10.2394 14.98341871 20289,6950.156,96.106,574.359,569.684,0.0
49144.0,STARLINK-3100,PAYLOAD,2022-01-23 14:00:01,14.98319181,0.0003405,70.0012,131.8832,277.9007,4.7916,0.00098225,0.00011644,0.0,0 STARLINK-3100,1 49144U 21082Q   22023.58334491  .00011644  00000-0  98225-3 0  9996,2 49144  70.0012 131.8832 0003405 277.9007   4.7916 14.98319181 20389,6950.226,96.108,574.4580000000002,569.725,0.0
49144.0,STARLINK-3100,PAYLOAD,2022-01-23 22:00:00,14.98353949,0.0003363,70.0008,131.0427,277.9733,2.1889,-0.0042401,-0.00050356,0.0,0 STARLINK-3100,1 49144U 21082Q   22023.91667824 -.00050356  00000-0 -42401-2 0  9991,2 49144  70.0008 131.0427 0003363 277.9733   2.1889 14.98353949  3578,6950.119000000002,96.105,574.321,569.6469999999998,0.0
49144.0,STARLINK-3100,PAYLOAD,2022-01-24 14:00:01,14.98326982,0.0003415,70.001,129.3617,278.2071,356.9377,0.0011284,0.00013396,0.0,0 STARLINK-3100,1 49144U 21082Q   22024.58334491  .00013396  00000-0  11284-2 0  9992,2 49144  70.0010 129.3617 0003415 278.2071 356.9377 14.98326982  3567,6950.2019999999975,96.107,574.441,569.694,0.0
49144.0,STARLINK-3100,PAYLOAD,2022-01-24 22:00:00,14.98361314,0.0003402,70.0006,128.5212,277.6913,354.9348,-0.004301,-0.00051083,0.0,0 STARLINK-3100,1 49144U 21082Q   22024.91667824 -.00051083  00000-0 -43010-2 0  9997,2 49144  70.0006 128.5212 0003402 277.6913 354.9348 14.98361314 20583,6950.096,96.105,574.325,569.597,0.0
49144.0,STARLINK-3100,PAYLOAD,2022-01-25 08:00:01,14.98364132,0.0003408,70.001,127.4706,272.9816,86.5068,-0.0025586,-0.00030517,0.0,0 STARLINK-3100,1 49144U 21082Q   22025.33334491 -.00030517  00000-0 -25586-2 0  9992,2 49144  70.0010 127.4706 0003408 272.9816  86.5068 14.98364132 20645,6950.087,96.105,574.321,569.5840000000002,0.0
49144.0,STARLINK-3100,PAYLOAD,2022-01-25 14:00:01,14.98334158,0.0003408,70.0009,126.8402,277.846,349.7846,-0.0018118,-0.00021647,0.0,0 STARLINK-3100,1 49144U 21082Q   22025.58334491 -.00021647  00000-0 -18118-2 0  9996,2 49144  70.0009 126.8402 0003408 277.8460 349.7846 14.98334158  3563,6950.18,96.107,574.414,569.6759999999998,0.0
49144.0,STARLINK-3100,PAYLOAD,2022-01-25 22:00:00,14.9834264,0.0003379,70.0006,125.9996,277.1023,348.0047,-0.0041452,-0.00049225,0.0,0 STARLINK-3100,1 49144U 21082Q   22025.91667824 -.00049225  00000-0 -41452-2 0  9991,2 49144  70.0006 125.9996 0003379 277.1023 348.0047 14.98342640  3596,6950.154,96.106,574.367,569.67,0.0
49144.0,STARLINK-3100,PAYLOAD,2022-01-26 14:00:01,14.98318437,0.0003458999999999,70.001,124.3187,277.5526,342.5227,0.0014945,0.0001778,0.0,0 STARLINK-3100,1 49144U 21082Q   22026.58334491  .00017780  00000-0  14945-2 0  9992,2 49144  70.0010 124.3187 0003459 277.5526 342.5227 14.98318437 20839,6950.229,96.108,574.498,569.69,0.0
49144.0,STARLINK-3100,PAYLOAD,2022-01-26 22:00:00,14.98354235,0.0003476,70.0008,123.4782,276.7024,340.8507,-0.0038411,-0.00045658,0.0,0 STARLINK-3100,1 49144U 21082Q   22026.91667824 -.00045658  00000-0 -38411-2 0  9999,2 49144  70.0008 123.4782 0003476 276.7024 340.8507 14.98354235  3570,6950.118,96.105,574.399,569.567,0.0
49144.0,STARLINK-3100,PAYLOAD,2022-01-27 12:52:35,14.98339343,0.0003525,69.9996,121.9157,275.4799,84.5958,2.2098e-06,-6.7e-07,0.0,0 STARLINK-3100,1 49144U 21082Q   22027.53652404 -.00000067  00000-0  22098-5 0  9997,2 49144  69.9996 121.9157 0003525 275.4799  84.5958 14.98339343 20970,6950.1640000000025,96.106,574.479,569.5790000000002,0.0
49144.0,STARLINK-3100,PAYLOAD,2022-01-27 22:00:00,14.98342387,0.0003429,70.0012,120.957,276.9966,333.0416,-0.0044866,-0.00053241,0.0,0 STARLINK-3100,1 49144U 21082Q   22027.91667824 -.00053241  00000-0 -44866-2 0  9998,2 49144  70.0012 120.9570 0003429 276.9966 333.0416 14.98342387 21036,6950.155,96.106,574.403,569.636,0.0
49144.0,STARLINK-3100,PAYLOAD,2022-01-28 06:00:02,14.98325204,0.0003429,70.0017,120.1168,272.8017,334.76800000000014,0.00096276,0.00011412,0.0,0 STARLINK-3100,1 49144U 21082Q   22028.25002315  .00011412  00000-0  96276-3 0  9999,2 49144  70.0017 120.1168 0003429 272.8017 334.7680 14.98325204 21083,6950.208000000001,96.107,574.456,569.689,0.0
49144.0,STARLINK-3100,PAYLOAD,2022-01-28 12:00:00,14.98324651,0.0003484,70.0016,119.4866,277.0149,238.6059,-0.00073141,-8.808e-05,0.0,0 STARLINK-3100,1 49144U 21082Q   22028.50001157 -.00008808  00000-0 -73141-3 0  9993,2 49144  70.0016 119.4866 0003484 277.0149 238.6059 14.98324651  3562,6950.209,96.107,574.496,569.653,0.0
49144.0,STARLINK-3100,PAYLOAD,2022-01-28 22:00:00,14.98343641,0.0003418,70.0016,118.4361,277.3836,325.0779,-0.0034666,-0.0004123,0.0,0 STARLINK-3100,1 49144U 21082Q   22028.91667824 -.00041230  00000-0 -34666-2 0  9991,2 49144  70.0016 118.4361 0003418 277.3836 325.0779 14.98343641 21182,6950.151,96.106,574.391,569.64,0.0
49144.0,STARLINK-3100,PAYLOAD,2022-01-29 06:00:00,14.98338022,0.000342,70.0019,117.5959,273.6005,326.3382,0.00047495,5.58e-05,0.0,0 STARLINK-3100,1 49144U 21082Q   22029.25001157  .00005580  00000-0  47495-3 0  9991,2 49144  70.0019 117.5959 0003420 273.6005 326.3382 14.98338022 21235,6950.168000000002,96.106,574.41,569.656,0.0
49144.0,STARLINK-3100,PAYLOAD,2022-01-29 14:00:01,14.98318649,0.0003467,70.002,116.7555,279.8556,317.5862,0.0027555,0.00032931,0.0,0 STARLINK-3100,1 49144U 21082Q   22029.58334491  .00032931  00000-0  27555-2 0  9991,2 49144  70.0020 116.7555 0003467 279.8556 317.5862 14.98318649  3586,6950.228,96.108,574.503,569.683,0.0
49144.0,STARLINK-3100,PAYLOAD,2022-01-29 22:00:00,14.98354021,0.0003401,70.0017,115.9152,277.9225,317.0033,-0.003087,-0.00036758,0.0,0 STARLINK-3100,1 49144U 21082Q   22029.91667824 -.00036758  00000-0 -30870-2 0  9994,2 49144  70.0017 115.9152 0003401 277.9225 317.0033 14.98354021  3585,6950.119000000002,96.105,574.347,569.62,0.0
49144.0,STARLINK-3100,PAYLOAD,2022-01-30 14:00:01,14.98306265,0.0003353,70.0021,114.2344,280.6805,309.2504,0.0029123,0.00034808,0.0,0 STARLINK-3100,1 49144U 21082Q   22030.58334491  .00034808  00000-0  29123-2 0  9991,2 49144  70.0021 114.2344 0003353 280.6805 309.2504 14.98306265 21433,6950.266,96.109,574.462,569.8009999999998,0.0
49144.0,STARLINK-3100,PAYLOAD,2022-01-30 22:00:00,14.98338244,0.000333,70.0017,113.394,277.9959,309.4037,-0.0026128,-0.00031138,0.0,0 STARLINK-3100,1 49144U 21082Q   22030.91667824 -.00031138  00000-0 -26128-2 0  9994,2 49144  70.0017 113.3940 0003330 277.9959 309.4037 14.98338244  3585,6950.167,96.106,574.347,569.7180000000002,0.0
49144.0,STARLINK-3100,PAYLOAD,2022-01-31 06:00:00,14.98342066,0.0003331,70.0021,112.5536,273.98900000000003,310.8836,-2.3239e-05,-3.700000000000001e-06,0.0,0 STARLINK-3100,1 49144U 21082Q   22031.25001157 -.00000370  00000-0 -23239-4 0  9999,2 49144  70.0021 112.5536 0003331 273.9890 310.8836 14.98342066 21527,6950.156,96.106,574.336,569.705,0.0
49144.0,STARLINK-3100,PAYLOAD,2022-01-31 14:00:01,14.98324887,0.0003383,70.002,111.7131,280.221,302.215,0.0017465999999999,0.00020807,0.0,0 STARLINK-3100,1 49144U 21082Q   22031.58335648  .00020807  00000-0  17466-2 0  9998,2 49144  70.0020 111.7131 0003383 280.2210 302.2150 14.98324887  3583,6950.209,96.107,574.425,569.722,0.0
49144.0,STARLINK-3100,PAYLOAD,2022-01-31 22:00:01,14.98336729,0.0003327,70.0016,110.8726,277.4891,302.4364,-0.0042879,-0.00050896,0.0,0 STARLINK-3100,1 49144U 21082Q   22031.91668981 -.00050896  00000-0 -42879-2 0  9993,2 49144  70.0016 110.8726 0003327 277.4891 302.4364 14.98336729  3575,6950.172,96.107,574.349,569.725,0.0
49144.0,STARLINK-3100,PAYLOAD,2022-02-01 06:00:00,14.98330872,0.00033,70.0019,110.0322,273.8469,303.4809,-0.00041605,-5.054e-05,0.0,0 STARLINK-3100,1 49144U 21082Q   22032.25001157 -.00005054  00000-0 -41605-3 0  9990,2 49144  70.0019 110.0322 0003300 273.8469 303.4809 14.98330872 21673,6950.19,96.107,574.349,569.762,0.0
49144.0,STARLINK-3100,PAYLOAD,2022-02-01 14:00:01,14.98306785,0.0003386,70.0017,109.1917,280.1216,294.7581,0.0031204,0.00037316,0.0,0 STARLINK-3100,1 49144U 21082Q   22032.58335648  .00037316  00000-0  31204-2 0  9998,2 49144  70.0017 109.1917 0003386 280.1216 294.7581 14.98306785  3579,6950.265,96.108,574.4830000000002,569.776,0.0
